SAUDISAT 1C (SO-50)     
1 27607U 02058C   26068.61742404  .00002222  00000+0  27919-3 0  9995
2 27607  64.5524  76.9957 0075248 280.7497  78.5144 14.82783142249695
STARLINK-4434           
1 53501U 22099AN  26068.87023785  .00000490  00000+0  42661-4 0  9993
2 53501  97.6017 190.4041 0003252  88.8351 271.3246 15.01260791196014
